AdminID,AdminName,Role,Phone,Address,DOB
A00001,Admin_1,HR,3550457582,"964 Admin Ave, City_97",1963-11-12
A00002,Admin_2,Manager,7752857580,"171 Admin Ave, City_20",1991-07-23
A00003,Admin_3,Manager,8270996858,"260 Admin Ave, City_4",1983-12-28
A00004,Admin_4,Accountant,6322576903,"607 Admin Ave, City_16",1968-12-12
A00005,Admin_5,Clerk,8487416376,"204 Admin Ave, City_82",1979-02-17
A00006,Admin_6,HR,7639259188,"818 Admin Ave, City_51",1972-06-22
A00007,Admin_7,Receptionist,3385809622,"242 Admin Ave, City_87",1990-07-28
A00008,Admin_8,HR,6590324932,"572 Admin Ave, City_26",1979-02-16
A00009,Admin_9,HR,1398010935,"352 Admin Ave, City_1",1982-09-02
A00010,Admin_10,Manager,8078658049,"520 Admin Ave, City_27",1993-11-16
A00011,Admin_11,Manager,2354310732,"277 Admin Ave, City_10",1984-11-29
A00012,Admin_12,Accountant,8056521969,"211 Admin Ave, City_53",1975-08-23
A00013,Admin_13,Accountant,5409266536,"955 Admin Ave, City_15",1995-08-03
A00014,Admin_14,Clerk,8770966708,"364 Admin Ave, City_25",1998-03-20
A00015,Admin_15,HR,1286207605,"130 Admin Ave, City_69",1960-11-22
A00016,Admin_16,Manager,6328592190,"389 Admin Ave, City_100",1958-01-22
A00017,Admin_17,HR,4634615790,"949 Admin Ave, City_37",1967-04-27
A00018,Admin_18,Manager,9223453478,"208 Admin Ave, City_95",1966-09-17
A00019,Admin_19,Clerk,1938377145,"429 Admin Ave, City_88",1972-08-05
A00020,Admin_20,HR,2928061868,"722 Admin Ave, City_69",1996-12-29
A00021,Admin_21,Clerk,5644906722,"745 Admin Ave, City_91",1961-07-03
A00022,Admin_22,Receptionist,1651990040,"176 Admin Ave, City_91",1967-12-15
A00023,Admin_23,Clerk,8958181962,"173 Admin Ave, City_59",1969-06-14
A00024,Admin_24,Accountant,2934283678,"459 Admin Ave, City_26",1960-03-10
A00025,Admin_25,Manager,6105994747,"357 Admin Ave, City_80",1961-12-22
A00026,Admin_26,Receptionist,5369373346,"718 Admin Ave, City_23",1973-10-26
A00027,Admin_27,Manager,6635715389,"347 Admin Ave, City_58",1985-09-14
A00028,Admin_28,Clerk,9056698076,"743 Admin Ave, City_25",1956-06-05
A00029,Admin_29,Clerk,9868871243,"104 Admin Ave, City_15",1966-02-11
A00030,Admin_30,Clerk,9357286802,"901 Admin Ave, City_34",1992-02-23
A00031,Admin_31,Receptionist,3245800793,"659 Admin Ave, City_54",1985-01-23
A00032,Admin_32,Manager,5670122977,"195 Admin Ave, City_61",1963-06-03
A00033,Admin_33,Accountant,2064764897,"492 Admin Ave, City_76",1989-03-13
A00034,Admin_34,Manager,9511512101,"886 Admin Ave, City_40",1973-04-10
A00035,Admin_35,Manager,4447486796,"904 Admin Ave, City_92",1959-01-08
A00036,Admin_36,HR,1322813081,"382 Admin Ave, City_48",1976-05-03
A00037,Admin_37,Receptionist,1447281629,"115 Admin Ave, City_97",1991-02-21
A00038,Admin_38,Accountant,8544986762,"851 Admin Ave, City_85",1970-08-30
A00039,Admin_39,HR,5336539485,"837 Admin Ave, City_41",1968-06-17
A00040,Admin_40,Receptionist,8397597978,"230 Admin Ave, City_52",1966-10-14
A00041,Admin_41,Receptionist,4166581974,"316 Admin Ave, City_8",1965-05-28
A00042,Admin_42,Manager,1417875305,"327 Admin Ave, City_16",1982-12-08
A00043,Admin_43,Receptionist,6984495511,"612 Admin Ave, City_84",1990-02-17
A00044,Admin_44,Manager,2865214292,"808 Admin Ave, City_78",1992-08-31
A00045,Admin_45,Clerk,5771653411,"937 Admin Ave, City_91",1999-02-05
A00046,Admin_46,Manager,1792653532,"850 Admin Ave, City_42",1978-03-30
A00047,Admin_47,Receptionist,1467481520,"617 Admin Ave, City_55",1984-06-26
A00048,Admin_48,Accountant,9369881270,"392 Admin Ave, City_60",1999-09-01
A00049,Admin_49,Receptionist,7909031460,"296 Admin Ave, City_40",1984-03-01
A00050,Admin_50,Clerk,9202588882,"290 Admin Ave, City_81",1974-03-24
A00051,Admin_51,Manager,1653826792,"565 Admin Ave, City_95",1977-06-01
A00052,Admin_52,Receptionist,9771057960,"857 Admin Ave, City_72",1979-01-29
A00053,Admin_53,Manager,3178241701,"210 Admin Ave, City_41",1970-01-26
A00054,Admin_54,Manager,6345379714,"934 Admin Ave, City_18",1991-07-28
A00055,Admin_55,HR,2473850671,"471 Admin Ave, City_91",1959-12-31
A00056,Admin_56,Manager,2774939838,"797 Admin Ave, City_89",1986-08-14
A00057,Admin_57,HR,4252754421,"228 Admin Ave, City_67",1970-06-25
A00058,Admin_58,HR,2433827647,"432 Admin Ave, City_59",1979-02-10
A00059,Admin_59,HR,7087645924,"129 Admin Ave, City_57",1963-09-22
A00060,Admin_60,Accountant,9053973745,"578 Admin Ave, City_63",1996-02-03
A00061,Admin_61,Receptionist,7492608280,"819 Admin Ave, City_76",1995-06-08
A00062,Admin_62,HR,4512143120,"885 Admin Ave, City_45",1995-05-30
A00063,Admin_63,Manager,7861384106,"752 Admin Ave, City_87",1959-03-19
A00064,Admin_64,Manager,6833865681,"310 Admin Ave, City_10",1971-12-02
A00065,Admin_65,HR,3577547519,"751 Admin Ave, City_9",1988-03-10
A00066,Admin_66,Receptionist,9179237077,"363 Admin Ave, City_9",1975-09-13
A00067,Admin_67,HR,8329563904,"325 Admin Ave, City_44",1978-01-20
A00068,Admin_68,Manager,6202197792,"554 Admin Ave, City_85",1988-02-04
A00069,Admin_69,Manager,2424513884,"985 Admin Ave, City_68",1971-10-05
A00070,Admin_70,Receptionist,4036727281,"511 Admin Ave, City_86",1976-04-09
A00071,Admin_71,HR,2152308899,"384 Admin Ave, City_24",1978-06-07
A00072,Admin_72,HR,5952705422,"907 Admin Ave, City_87",1955-03-02
A00073,Admin_73,HR,2609868940,"131 Admin Ave, City_55",1991-09-30
A00074,Admin_74,Receptionist,5541703318,"467 Admin Ave, City_65",1973-09-29
A00075,Admin_75,HR,1904150247,"431 Admin Ave, City_14",1964-08-15
A00076,Admin_76,Receptionist,7333824917,"526 Admin Ave, City_90",1997-06-04
A00077,Admin_77,Manager,2419349679,"739 Admin Ave, City_4",1967-03-25
A00078,Admin_78,HR,6565651188,"104 Admin Ave, City_66",1966-11-18
A00079,Admin_79,Accountant,4135458750,"679 Admin Ave, City_43",1962-05-04
A00080,Admin_80,HR,3823612274,"899 Admin Ave, City_47",1983-08-05
A00081,Admin_81,Receptionist,5489173543,"557 Admin Ave, City_52",1992-04-18
A00082,Admin_82,Accountant,5969388826,"733 Admin Ave, City_65",1977-09-11
A00083,Admin_83,Clerk,4748919794,"228 Admin Ave, City_46",1994-01-07
A00084,Admin_84,Clerk,6096176995,"543 Admin Ave, City_92",1988-04-28
A00085,Admin_85,Accountant,7525356610,"108 Admin Ave, City_67",1974-09-08
A00086,Admin_86,Accountant,8700748386,"732 Admin Ave, City_9",1978-12-25
A00087,Admin_87,HR,7546311981,"725 Admin Ave, City_60",1997-12-28
A00088,Admin_88,Clerk,1571749582,"561 Admin Ave, City_49",1997-03-14
A00089,Admin_89,Manager,4713729143,"989 Admin Ave, City_94",1980-09-20
A00090,Admin_90,HR,6169280115,"984 Admin Ave, City_76",1974-03-09
A00091,Admin_91,Manager,2383993299,"554 Admin Ave, City_62",1999-08-29
A00092,Admin_92,Receptionist,7579383627,"386 Admin Ave, City_9",1978-11-17
A00093,Admin_93,Manager,9718273809,"810 Admin Ave, City_48",1976-03-30
A00094,Admin_94,Accountant,8365333748,"809 Admin Ave, City_17",1985-01-01
A00095,Admin_95,Receptionist,2337929798,"802 Admin Ave, City_32",1960-08-28
A00096,Admin_96,HR,7649736653,"849 Admin Ave, City_59",1977-02-12
A00097,Admin_97,Accountant,5655663276,"738 Admin Ave, City_47",1995-06-16
A00098,Admin_98,Clerk,2366827230,"911 Admin Ave, City_97",1999-10-26
A00099,Admin_99,HR,4672147125,"199 Admin Ave, City_82",1985-04-19
A00100,Admin_100,Clerk,8066859498,"100 Admin Ave, City_13",1992-06-25
A00101,Admin_101,Manager,2876123149,"832 Admin Ave, City_5",1966-02-28
A00102,Admin_102,Manager,3440180946,"425 Admin Ave, City_28",1998-05-17
A00103,Admin_103,Clerk,2276282304,"618 Admin Ave, City_70",1981-01-28
A00104,Admin_104,HR,7641813223,"610 Admin Ave, City_7",1996-06-22
A00105,Admin_105,Clerk,9665476091,"487 Admin Ave, City_62",1973-01-21
A00106,Admin_106,Receptionist,3229616988,"402 Admin Ave, City_64",1966-03-27
A00107,Admin_107,Accountant,7674723102,"320 Admin Ave, City_67",1989-12-18
A00108,Admin_108,Clerk,4531910878,"628 Admin Ave, City_13",1976-10-03
A00109,Admin_109,Accountant,5041494812,"497 Admin Ave, City_52",1988-03-26
A00110,Admin_110,HR,5052247544,"665 Admin Ave, City_37",1959-07-12
A00111,Admin_111,HR,9389926400,"475 Admin Ave, City_45",1990-09-30
A00112,Admin_112,Receptionist,1435685866,"142 Admin Ave, City_13",1998-09-01
A00113,Admin_113,Receptionist,3441004611,"268 Admin Ave, City_40",1955-12-27
A00114,Admin_114,Accountant,8343620306,"677 Admin Ave, City_31",1998-03-22
A00115,Admin_115,Clerk,5863796339,"334 Admin Ave, City_51",1999-04-21
A00116,Admin_116,Clerk,4646551811,"994 Admin Ave, City_17",1976-05-25
A00117,Admin_117,HR,2610992814,"582 Admin Ave, City_42",1970-12-13
A00118,Admin_118,Manager,8088128270,"753 Admin Ave, City_2",1962-08-15
A00119,Admin_119,HR,4455845429,"400 Admin Ave, City_73",1959-11-29
A00120,Admin_120,Clerk,9347764303,"815 Admin Ave, City_61",1978-07-25
A00121,Admin_121,Receptionist,1968699512,"364 Admin Ave, City_13",1974-07-06
A00122,Admin_122,Accountant,4967202399,"812 Admin Ave, City_72",1975-07-03
A00123,Admin_123,Accountant,4209267560,"117 Admin Ave, City_96",1963-05-17
A00124,Admin_124,Clerk,1223158162,"110 Admin Ave, City_71",1955-04-03
A00125,Admin_125,Clerk,7899976783,"229 Admin Ave, City_37",1965-03-28
A00126,Admin_126,Clerk,1944585182,"435 Admin Ave, City_91",1972-08-23
A00127,Admin_127,Receptionist,5921061846,"197 Admin Ave, City_10",1978-09-08
A00128,Admin_128,HR,1763316157,"392 Admin Ave, City_14",1973-08-28
A00129,Admin_129,HR,9368921795,"447 Admin Ave, City_14",1980-08-29
A00130,Admin_130,Receptionist,1423353855,"781 Admin Ave, City_29",1970-12-17
A00131,Admin_131,HR,8711578012,"442 Admin Ave, City_54",1965-06-20
A00132,Admin_132,Accountant,2511843797,"216 Admin Ave, City_16",1982-03-17
A00133,Admin_133,Clerk,1698992652,"217 Admin Ave, City_100",1976-09-04
A00134,Admin_134,Receptionist,8626404020,"698 Admin Ave, City_25",1998-07-31
A00135,Admin_135,Clerk,7605606523,"925 Admin Ave, City_69",1956-07-07
A00136,Admin_136,Receptionist,4927979412,"875 Admin Ave, City_1",1961-09-05
A00137,Admin_137,Receptionist,3751164968,"854 Admin Ave, City_70",1973-08-21
A00138,Admin_138,Accountant,5853333907,"792 Admin Ave, City_86",1984-10-26
A00139,Admin_139,Accountant,5491247326,"952 Admin Ave, City_24",1967-08-04
A00140,Admin_140,Receptionist,7738809218,"639 Admin Ave, City_90",1984-09-05
A00141,Admin_141,Receptionist,5549543907,"338 Admin Ave, City_84",1985-01-19
A00142,Admin_142,Manager,8251147484,"757 Admin Ave, City_85",1960-10-21
A00143,Admin_143,Manager,9557348077,"404 Admin Ave, City_59",1961-06-17
A00144,Admin_144,Receptionist,8458462615,"821 Admin Ave, City_30",1973-02-24
A00145,Admin_145,Accountant,2840080159,"643 Admin Ave, City_87",1986-08-11
A00146,Admin_146,Receptionist,4144148468,"117 Admin Ave, City_22",1974-01-28
A00147,Admin_147,Receptionist,7186643705,"660 Admin Ave, City_35",1964-03-13
A00148,Admin_148,Receptionist,1146059195,"999 Admin Ave, City_63",1983-01-17
A00149,Admin_149,Manager,2365456857,"283 Admin Ave, City_77",1996-03-27
A00150,Admin_150,Manager,8659610065,"582 Admin Ave, City_14",1986-08-18
A00151,Admin_151,Accountant,1437733333,"143 Admin Ave, City_25",1974-07-09
A00152,Admin_152,Receptionist,4213343406,"875 Admin Ave, City_87",1985-04-21
A00153,Admin_153,Manager,5393118867,"549 Admin Ave, City_32",1997-12-06
A00154,Admin_154,Accountant,5845133621,"750 Admin Ave, City_93",1988-03-03
A00155,Admin_155,Clerk,5259960145,"827 Admin Ave, City_19",1962-09-22
A00156,Admin_156,Clerk,7123408158,"732 Admin Ave, City_53",1955-06-18
A00157,Admin_157,HR,7314514662,"728 Admin Ave, City_29",1995-04-07
A00158,Admin_158,HR,4077330518,"484 Admin Ave, City_7",1998-07-21
A00159,Admin_159,Clerk,9011830997,"826 Admin Ave, City_26",1975-08-11
A00160,Admin_160,Manager,1213779037,"336 Admin Ave, City_56",1967-11-10
A00161,Admin_161,Accountant,7960878458,"879 Admin Ave, City_3",1966-09-26
A00162,Admin_162,Receptionist,4022032820,"926 Admin Ave, City_81",1964-03-27
A00163,Admin_163,Receptionist,1270498109,"647 Admin Ave, City_84",1960-07-15
A00164,Admin_164,Receptionist,2337513842,"451 Admin Ave, City_71",1962-07-17
A00165,Admin_165,Manager,5890170574,"452 Admin Ave, City_5",1991-09-15
A00166,Admin_166,Accountant,8624908552,"679 Admin Ave, City_33",1966-11-16
A00167,Admin_167,Receptionist,9755621091,"714 Admin Ave, City_44",1983-10-27
A00168,Admin_168,Accountant,8080877450,"313 Admin Ave, City_92",1957-07-03
A00169,Admin_169,Clerk,6254208395,"682 Admin Ave, City_71",1990-11-26
A00170,Admin_170,Clerk,2909810611,"566 Admin Ave, City_53",1975-06-10
A00171,Admin_171,Receptionist,5159757466,"742 Admin Ave, City_54",1971-07-20
A00172,Admin_172,Receptionist,7094814204,"842 Admin Ave, City_13",1960-05-06
A00173,Admin_173,Manager,8394979344,"949 Admin Ave, City_26",1991-01-01
A00174,Admin_174,Receptionist,3633273193,"123 Admin Ave, City_6",1989-08-02
A00175,Admin_175,Clerk,4759842650,"415 Admin Ave, City_61",1994-03-07
A00176,Admin_176,Manager,7112482171,"834 Admin Ave, City_52",1981-09-25
A00177,Admin_177,Receptionist,6224057979,"118 Admin Ave, City_96",1968-07-16
A00178,Admin_178,Clerk,1963862572,"408 Admin Ave, City_70",1961-04-02
A00179,Admin_179,Accountant,1348552242,"937 Admin Ave, City_7",1977-06-14
A00180,Admin_180,Clerk,2073056597,"546 Admin Ave, City_75",1991-03-28
A00181,Admin_181,HR,6638416001,"301 Admin Ave, City_48",1999-05-11
A00182,Admin_182,Manager,4237345825,"470 Admin Ave, City_71",1996-11-18
A00183,Admin_183,HR,5919112140,"636 Admin Ave, City_55",1987-07-26
A00184,Admin_184,Manager,6649952554,"858 Admin Ave, City_84",1986-03-04
A00185,Admin_185,Manager,3762160446,"733 Admin Ave, City_63",1968-03-18
A00186,Admin_186,Accountant,9469310360,"733 Admin Ave, City_33",1969-08-12
A00187,Admin_187,Manager,2000107326,"866 Admin Ave, City_85",1989-10-01
A00188,Admin_188,Manager,6665707252,"125 Admin Ave, City_65",1982-07-17
A00189,Admin_189,Manager,6212855582,"150 Admin Ave, City_9",1959-06-25
A00190,Admin_190,Receptionist,3587296247,"308 Admin Ave, City_52",1990-06-23
A00191,Admin_191,Clerk,5168706688,"236 Admin Ave, City_13",1957-09-11
A00192,Admin_192,Receptionist,1795840631,"745 Admin Ave, City_38",1963-04-28
A00193,Admin_193,HR,9674425684,"555 Admin Ave, City_48",1991-02-01
A00194,Admin_194,Receptionist,7475352047,"759 Admin Ave, City_9",1980-10-24
A00195,Admin_195,Manager,5265640801,"685 Admin Ave, City_100",1957-07-05
A00196,Admin_196,Clerk,6342265901,"676 Admin Ave, City_62",1974-09-04
A00197,Admin_197,Receptionist,9989994567,"848 Admin Ave, City_4",1966-04-21
A00198,Admin_198,Receptionist,9392041321,"690 Admin Ave, City_7",1955-11-07
A00199,Admin_199,Manager,8121782182,"401 Admin Ave, City_47",1989-05-31
A00200,Admin_200,Clerk,9511719608,"813 Admin Ave, City_72",1964-11-05
